GITAI-SC1               
1 62388U 24247M   26068.21028328  .00006055  00000+0  28634-3 0  9995
2 62388  45.0010 131.8038 0002125 277.7935  82.2703 15.20258622 67517
TRANSPORTER-15 OBJECT CZ
1 66761U 25276CZ  26068.73075237  .00011576  00000+0  53312-3 0  9990
2 66761  97.4256 144.1611 0000691 127.7851 232.3447 15.20454432 15333
