[{"OBJECT_NAME":"GITAI-SC1","OBJECT_ID":"2024-247M","EPOCH":"2026-03-09T05:02:48.475392","MEAN_MOTION":15.20258622,"ECCENTRICITY":0.00021257,"INCLINATION":45.001,"RA_OF_ASC_NODE":131.8038,"ARG_OF_PERICENTER":277.7935,"MEAN_ANOMALY":82.2703,"EPHEMERIS_TYPE":0,"CLASSIFICATION_TYPE":"U","NORAD_CAT_ID":62388,"ELEMENT_SET_NO":999,"REV_AT_EPOCH":6751,"BSTAR":0.00028634303,"MEAN_MOTION_DOT":6.055e-5,"MEAN_MOTION_DDOT":0},{"OBJECT_NAME":"TRANSPORTER-15 OBJECT CZ","OBJECT_ID":"2025-276CZ","EPOCH":"2026-03-09T17:32:17.005632","MEAN_MOTION":15.20454432,"ECCENTRICITY":6.906e-5,"INCLINATION":97.4256,"RA_OF_ASC_NODE":144.1611,"ARG_OF_PERICENTER":127.7851,"MEAN_ANOMALY":232.3447,"EPHEMERIS_TYPE":0,"CLASSIFICATION_TYPE":"U","NORAD_CAT_ID":66761,"ELEMENT_SET_NO":999,"REV_AT_EPOCH":1533,"BSTAR":0.0005331226,"MEAN_MOTION_DOT":0.00011576,"MEAN_MOTION_DDOT":0}]
